[{"OBJECT_NAME":"GEESAT-1 03","OBJECT_ID":"2022-058C","EPOCH":"2026-03-09T22:14:40.890624","MEAN_MOTION":14.81007855,"ECCENTRICITY":0.00085744,"INCLINATION":49.9869,"RA_OF_ASC_NODE":299.7347,"ARG_OF_PERICENTER":85.2975,"MEAN_ANOMALY":274.8941,"EPHEMERIS_TYPE":0,"CLASSIFICATION_TYPE":"U","NORAD_CAT_ID":52787,"ELEMENT_SET_NO":999,"REV_AT_EPOCH":20522,"BSTAR":0.00036442214,"MEAN_MOTION_DOT":2.633e-5,"MEAN_MOTION_DDOT":0},{"OBJECT_NAME":"SL-14 R\/B","OBJECT_ID":"1988-056B","EPOCH":"2026-03-09T22:09:02.841984","MEAN_MOTION":14.85107061,"ECCENTRICITY":0.00200259,"INCLINATION":82.5135,"RA_OF_ASC_NODE":224.3406,"ARG_OF_PERICENTER":136.9307,"MEAN_ANOMALY":223.348,"EPHEMERIS_TYPE":0,"CLASSIFICATION_TYPE":"U","NORAD_CAT_ID":19275,"ELEMENT_SET_NO":999,"REV_AT_EPOCH":1470,"BSTAR":8.8660519e-5,"MEAN_MOTION_DOT":7.85e-6,"MEAN_MOTION_DDOT":0}]
